start=new Date('2022-09-10T00:00:00.000Z').valueOf();
sats=[{"SEMIMAJOR_AXIS":"6925.334","REV_AT_EPOCH":"10703","MEAN_MOTION_DOT":"0.00000989","NORAD_CAT_ID":"46532","TLE_LINE1":"1 46532U 20070A   22252.70482655  .00000989  00000-0  85257-4 0  9996","TLE_LINE2":"2 46532  53.0549 149.2269 0001568  70.0600 290.0558 15.06404786107035","PERIOD":"95.592","ARG_OF_PERICENTER":"70.0600","RA_OF_ASC_NODE":"149.2269","RCS_SIZE":"LARGE","TIME_SYSTEM":"UTC","MEAN_MOTION":"15.06404786","MEAN_ELEMENT_THEORY":"SGP4","DECAY_DATE":null,"OBJECT_TYPE":"PAYLOAD","OBJECT_NAME":"STARLINK-1644","BSTAR":"0.00008525700000","ELEMENT_SET_NO":"999","APOAPSIS":"548.285","CENTER_NAME":"EARTH","FILE":"3565505","MEAN_ANOMALY":"290.0558","GP_ID":"212165390","MEAN_MOTION_DDOT":"0.0000000000000","ECCENTRICITY":"0.00015680","COUNTRY_CODE":"US","PERIAPSIS":"546.113","CLASSIFICATION_TYPE":"U","EPOCH":"2022-09-09T16:54:57.013920","OBJECT_ID":"2020-070A","LAUNCH_DATE":"2020-10-06","EPHEMERIS_TYPE":"0","INCLINATION":"53.0549","REF_FRAME":"TEME","SITE":"AFETR"},{"SITE":"AFETR","REF_FRAME":"TEME","LAUNCH_DATE":"2020-10-06","INCLINATION":"53.0547","EPHEMERIS_TYPE":"0","OBJECT_ID":"2020-070B","EPOCH":"2022-09-09T10:48:43.291584","CLASSIFICATION_TYPE":"U","PERIAPSIS":"545.971","ECCENTRICITY":"0.00018170","COUNTRY_CODE":"US","MEAN_MOTION_DDOT":"0.0000000000000","GP_ID":"212139262","MEAN_ANOMALY":"296.7039","FILE":"3565257","CENTER_NAME":"EARTH","APOAPSIS":"548.488","BSTAR":"0.00017218000000","ELEMENT_SET_NO":"999","OBJECT_NAME":"STARLINK-1648","OBJECT_TYPE":"PAYLOAD","DECAY_DATE":null,"MEAN_ELEMENT_THEORY":"SGP4","MEAN_MOTION":"15.06394817","TIME_SYSTEM":"UTC","ARG_OF_PERICENTER":"63.4136","RA_OF_ASC_NODE":"150.3588","RCS_SIZE":"LARGE","TLE_LINE1":"1 46533U 20070B   22252.45050106  .00002284  00000-0  17218-3 0  9992","PERIOD":"95.592","TLE_LINE2":"2 46533  53.0547 150.3588 0001817  63.4136 296.7039 15.06394817107016","MEAN_MOTION_DOT":"0.00002284","NORAD_CAT_ID":"46533","SEMIMAJOR_AXIS":"6925.364","REV_AT_EPOCH":"10701"},{"MEAN_ANOMALY":"297.2321","CENTER_NAME":"EARTH","FILE":"3565190","COUNTRY_CODE":"US","ECCENTRICITY":"0.00015070","MEAN_MOTION_DDOT":"0.0000000000000","GP_ID":"212137938","EPOCH":"2022-09-09T05:35:33.184608","CLASSIFICATION_TYPE":"U","PERIAPSIS":"546.113","REF_FRAME":"TEME","SITE":"AFETR","LAUNCH_DATE":"2020-10-06","INCLINATION":"53.0539","EPHEMERIS_TYPE":"0","OBJECT_ID":"2020-070C","TLE_LINE2":"2 46534  53.0539 151.3495 0001507  62.8822 297.2321 15.06418412106980","PERIOD":"95.591","TLE_LINE1":"1 46534U 20070C   22252.23302297  .00012574  00000-0  86108-3 0  9997","NORAD_CAT_ID":"46534","MEAN_MOTION_DOT":"0.00012574","SEMIMAJOR_AXIS":"6925.292","REV_AT_EPOCH":"10698","DECAY_DATE":null,"MEAN_ELEMENT_THEORY":"SGP4","MEAN_MOTION":"15.06418412","TIME_SYSTEM":"UTC","RCS_SIZE":"LARGE","RA_OF_ASC_NODE":"151.3495","ARG_OF_PERICENTER":"62.8822","BSTAR":"0.00086108000000","ELEMENT_SET_NO":"999","OBJECT_NAME":"STARLINK-1659","OBJECT_TYPE":"PAYLOAD","APOAPSIS":"548.201"},{"BSTAR":"0.00053464000000","ELEMENT_SET_NO":"999","OBJECT_TYPE":"PAYLOAD","OBJECT_NAME":"STARLINK-1663","APOAPSIS":"548.219","TLE_LINE1":"1 46535U 20070D   22252.22197161  .00007694  00000-0  53464-3 0  9995","TLE_LINE2":"2 46535  53.0549 151.4053 0001516  72.0772 288.0382 15.06414457106957","PERIOD":"95.591","REV_AT_EPOCH":"10695","SEMIMAJOR_AXIS":"6925.304","MEAN_MOTION_DOT":"0.00007694","NORAD_CAT_ID":"46535","MEAN_MOTION":"15.06414457","MEAN_ELEMENT_THEORY":"SGP4","DECAY_DATE":null,"ARG_OF_PERICENTER":"72.0772","RA_OF_ASC_NODE":"151.4053","RCS_SIZE":"LARGE","TIME_SYSTEM":"UTC","EPOCH":"2022-09-09T05:19:38.347104","PERIAPSIS":"546.119","CLASSIFICATION_TYPE":"U","INCLINATION":"53.0549","LAUNCH_DATE":"2020-10-06","EPHEMERIS_TYPE":"0","REF_FRAME":"TEME","SITE":"AFETR","OBJECT_ID":"2020-070D","MEAN_ANOMALY":"288.0382","CENTER_NAME":"EARTH","FILE":"3564914","MEAN_MOTION_DDOT":"0.0000000000000","ECCENTRICITY":"0.00015160","COUNTRY_CODE":"US","GP_ID":"212124867"},{"APOAPSIS":"548.303","BSTAR":"0.00021136000000","ELEMENT_SET_NO":"999","OBJECT_NAME":"STARLINK-1672","OBJECT_TYPE":"PAYLOAD","DECAY_DATE":null,"MEAN_ELEMENT_THEORY":"SGP4","MEAN_MOTION":"15.06399177","TIME_SYSTEM":"UTC","ARG_OF_PERICENTER":"76.3773","RCS_SIZE":"LARGE","RA_OF_ASC_NODE":"150.3816","TLE_LINE1":"1 46537U 20070F   22252.44680896  .00002868  00000-0  21136-3 0  9992","PERIOD":"95.592","TLE_LINE2":"2 46537  53.0557 150.3816 0001569  76.3773 283.7391 15.06399177106996","MEAN_MOTION_DOT":"0.00002868","NORAD_CAT_ID":"46537","SEMIMAJOR_AXIS":"6925.351","REV_AT_EPOCH":"10699","SITE":"AFETR","REF_FRAME":"TEME","EPHEMERIS_TYPE":"0","LAUNCH_DATE":"2020-10-06","INCLINATION":"53.0557","OBJECT_ID":"2020-070F","EPOCH":"2022-09-09T10:43:24.294144","CLASSIFICATION_TYPE":"U","PERIAPSIS":"546.129","ECCENTRICITY":"0.00015690","COUNTRY_CODE":"US","MEAN_MOTION_DDOT":"0.0000000000000","GP_ID":"212125116","MEAN_ANOMALY":"283.7391","FILE":"3564914","CENTER_NAME":"EARTH"},{"MEAN_ANOMALY":"288.6080","FILE":"3565505","CENTER_NAME":"EARTH","MEAN_MOTION_DDOT":"0.0000000000000","ECCENTRICITY":"0.00015660","COUNTRY_CODE":"US","GP_ID":"212163644","EPOCH":"2022-09-09T18:09:15.657408","PERIAPSIS":"546.088","CLASSIFICATION_TYPE":"U","LAUNCH_DATE":"2020-10-06","INCLINATION":"53.0541","EPHEMERIS_TYPE":"0","SITE":"AFETR","REF_FRAME":"TEME","OBJECT_ID":"2020-070G","TLE_LINE1":"1 46538U 20070G   22252.75643122  .00000075  00000-0  23953-4 0  9996","TLE_LINE2":"2 46538  53.0541 148.9929 0001566  71.5079 288.6080 15.06413463107031","PERIOD":"95.591","REV_AT_EPOCH":"10703","SEMIMAJOR_AXIS":"6925.307","MEAN_MOTION_DOT":"0.00000075","NORAD_CAT_ID":"46538","MEAN_MOTION":"15.06413463","MEAN_ELEMENT_THEORY":"SGP4","DECAY_DATE":null,"ARG_OF_PERICENTER":"71.5079","RA_OF_ASC_NODE":"148.9929","RCS_SIZE":"LARGE","TIME_SYSTEM":"UTC","BSTAR":"0.00002395300000","ELEMENT_SET_NO":"999","OBJECT_TYPE":"PAYLOAD","OBJECT_NAME":"STARLINK-1678","APOAPSIS":"548.257"},{"TIME_SYSTEM":"UTC","ARG_OF_PERICENTER":"82.8474","RCS_SIZE":"LARGE","RA_OF_ASC_NODE":"130.5873","DECAY_DATE":null,"MEAN_ELEMENT_THEORY":"SGP4","MEAN_MOTION":"15.06406319","MEAN_MOTION_DOT":"0.00005243","NORAD_CAT_ID":"46541","REV_AT_EPOCH":"10726","SEMIMAJOR_AXIS":"6925.329","TLE_LINE1":"1 46541U 20070K   22252.40442431  .00005243  00000-0  37055-3 0  9991","PERIOD":"95.592","TLE_LINE2":"2 46541  53.0547 130.5873 0001398  82.8474 277.2674 15.06406319107263","APOAPSIS":"548.162","OBJECT_NAME":"STARLINK-1687","OBJECT_TYPE":"PAYLOAD","BSTAR":"0.00037055000000","ELEMENT_SET_NO":"999","GP_ID":"212126106","ECCENTRICITY":"0.00013980","COUNTRY_CODE":"US","MEAN_MOTION_DDOT":"0.0000000000000","CENTER_NAME":"EARTH","FILE":"3564914","MEAN_ANOMALY":"277.2674","OBJECT_ID":"2020-070K","REF_FRAME":"TEME","SITE":"AFETR","EPHEMERIS_TYPE":"0","LAUNCH_DATE":"2020-10-06","INCLINATION":"53.0547","CLASSIFICATION_TYPE":"U","PERIAPSIS":"546.226","EPOCH":"2022-09-09T09:42:22.260384"},{"BSTAR":"0.00000106830000","ELEMENT_SET_NO":"999","OBJECT_NAME":"STARLINK-1692","OBJECT_TYPE":"PAYLOAD","APOAPSIS":"548.380","TLE_LINE1":"1 46542U 20070L   22252.87069229 -.00000266  00000-0  10683-5 0  9994","TLE_LINE2":"2 46542  53.0554 148.4885 0001686  74.3867 285.7308 15.06400540107050","PERIOD":"95.592","MEAN_MOTION_DOT":"-0.00000266","NORAD_CAT_ID":"46542","SEMIMAJOR_AXIS":"6925.347","REV_AT_EPOCH":"10705","MEAN_ELEMENT_THEORY":"SGP4","DECAY_DATE":null,"MEAN_MOTION":"15.06400540","TIME_SYSTEM":"UTC","ARG_OF_PERICENTER":"74.3867","RCS_SIZE":"LARGE","RA_OF_ASC_NODE":"148.4885","EPOCH":"2022-09-09T20:53:47.813856","CLASSIFICATION_TYPE":"U","PERIAPSIS":"546.044","SITE":"AFETR","REF_FRAME":"TEME","LAUNCH_DATE":"2020-10-06","INCLINATION":"53.0554","EPHEMERIS_TYPE":"0","OBJECT_ID":"2020-070L","MEAN_ANOMALY":"285.7308","CENTER_NAME":"EARTH","FILE":"3565505","ECCENTRICITY":"0.00016860","COUNTRY_CODE":"US","MEAN_MOTION_DDOT":"0.0000000000000","GP_ID":"212164645"},{"SITE":"AFETR","REF_FRAME":"TEME","INCLINATION":"53.0552","LAUNCH_DATE":"2020-10-06","EPHEMERIS_TYPE":"0","OBJECT_ID":"2020-070M","EPOCH":"2022-09-09T10:59:19.428864","CLASSIFICATION_TYPE":"U","PERIAPSIS":"546.040","ECCENTRICITY":"0.00016900","COUNTRY_CODE":"US","MEAN_MOTION_DDOT":"0.0000000000000","GP_ID":"212125615","MEAN_ANOMALY":"283.7240","CENTER_NAME":"EARTH","FILE":"3564914","APOAPSIS":"548.380","BSTAR":"0.00015474000000","ELEMENT_SET_NO":"999","OBJECT_NAME":"STARLINK-1693","OBJECT_TYPE":"PAYLOAD","MEAN_ELEMENT_THEORY":"SGP4","DECAY_DATE":null,"MEAN_MOTION":"15.06401151","TIME_SYSTEM":"UTC","ARG_OF_PERICENTER":"76.3937","RA_OF_ASC_NODE":"150.3350","RCS_SIZE":"LARGE","TLE_LINE1":"1 46543U 20070M   22252.45786376  .00002024  00000-0  15474-3 0  9992","PERIOD":"95.592","TLE_LINE2":"2 46543  53.0552 150.3350 0001690  76.3937 283.7240 15.06401151106997","MEAN_MOTION_DOT":"0.00002024","NORAD_CAT_ID":"46543","REV_AT_EPOCH":"10699","SEMIMAJOR_AXIS":"6925.345"},{"TIME_SYSTEM":"UTC","RA_OF_ASC_NODE":"134.1751","RCS_SIZE":"LARGE","ARG_OF_PERICENTER":"83.7388","DECAY_DATE":null,"MEAN_ELEMENT_THEORY":"SGP4","MEAN_MOTION":"15.06401812","NORAD_CAT_ID":"46544","MEAN_MOTION_DOT":"0.00001005","SEMIMAJOR_AXIS":"6925.343","REV_AT_EPOCH":"10724","PERIOD":"95.592","TLE_LINE2":"2 46544  53.0541 134.1751 0001404  83.7388 276.3761 15.06401812107245","TLE_LINE1":"1 46544U 20070N   22252.71911487  .00001005  00000-0  86370-4 0  9997","APOAPSIS":"548.180","OBJECT_NAME":"STARLINK-1694","OBJECT_TYPE":"PAYLOAD","ELEMENT_SET_NO":"999","BSTAR":"0.00008637000000","GP_ID":"212164144","COUNTRY_CODE":"US","ECCENTRICITY":"0.00014040","MEAN_MOTION_DDOT":"0.0000000000000","CENTER_NAME":"EARTH","FILE":"3565505","MEAN_ANOMALY":"276.3761","OBJECT_ID":"2020-070N","REF_FRAME":"TEME","SITE":"AFETR","EPHEMERIS_TYPE":"0","LAUNCH_DATE":"2020-10-06","INCLINATION":"53.0541","CLASSIFICATION_TYPE":"U","PERIAPSIS":"546.236","EPOCH":"2022-09-09T17:15:31.524768"}];
